OBJECT_NAME,OBJECT_ID,EPOCH,MEAN_MOTION,ECCENTRICITY,INCLINATION,RA_OF_ASC_NODE,ARG_OF_PERICENTER,MEAN_ANOMALY,EPHEMERIS_TYPE,CLASSIFICATION_TYPE,NORAD_CAT_ID,ELEMENT_SET_NO,REV_AT_EPOCH,BSTAR,MEAN_MOTION_DOT,MEAN_MOTION_DDOT
ONEWEB-0068,2020-020Y,2026-07-19T12:04:33.411936,13.11417316,.00016546,87.8895,14.6302,93.9822,266.1495,0,U,45446,999,30683,-.10356611E-2,-.354E-5,0
ONEWEB-0046,2020-020Z,2026-07-19T11:52:32.731392,13.11416066,.00015821,87.8887,14.6359,85.8681,274.2627,0,U,45447,999,30684,-.16661431E-3,-.46E-6,0
ONEWEB-0063,2020-020AA,2026-07-19T10:44:23.679456,13.11417942,.0001836,87.8895,14.6478,82.0232,278.1105,0,U,45448,999,30692,-.88087499E-3,-.3E-5,0
ONEWEB-0019,2020-020AB,2026-07-19T11:40:09.878016,13.11415254,.00020032,87.8890,14.6238,96.2670,263.8686,0,U,45449,999,30677,.87948508E-3,.324E-5,0
ONEWEB-0094,2020-020AC,2026-07-19T11:25:11.187552,13.17649370,.00018585,87.9159,359.4287,101.2772,258.8569,0,U,45450,999,31056,.34520935E-4,.26E-6,0
ONEWEB-0087,2020-020AD,2026-07-19T10:58:39.031680,13.11418749,.00015957,87.8903,14.6218,97.1715,262.9595,0,U,45451,999,30681,.28688285E-3,.114E-5,0
ONEWEB-0082,2020-020AE,2026-07-19T10:53:45.792672,13.11419413,.00013527,87.8896,14.6362,93.0944,267.0339,0,U,45452,999,30690,-.13141901E-3,-.34E-6,0
ONEWEB-0050,2020-020AF,2026-07-19T02:25:33.312864,14.90478592,.00027731,88.9282,228.8753,164.3342,195.7973,0,U,45453,999,34513,.79976852E-4,.802E-5,0
ONEWEB-0034,2020-020AG,2026-07-19T11:47:54.710016,13.11414526,.00018077,87.8894,14.6379,89.2302,270.9033,0,U,45454,999,30682,.37085197E-3,.144E-5,0
ONEWEB-0060,2020-020AH,2026-07-19T10:42:58.627296,13.11418202,.00013978,87.8890,14.6427,125.0873,235.0386,0,U,45455,999,30677,-.98506078E-3,-.336E-5,0
ONEWEB-0086,2020-020AJ,2026-07-19T12:02:07.065888,13.11416065,.00020003,87.8895,14.6295,114.3126,245.8211,0,U,45456,999,30684,-.88390768E-3,-.301E-5,0
ONEWEB-0088,2020-020AK,2026-07-19T11:30:35.131392,13.11416481,.00016399,87.8903,14.6091,79.6731,280.4582,0,U,45457,999,30677,.14914449E-2,.541E-5,0
ONEWEB-0102,2020-100A,2026-07-19T11:00:16.721568,13.12443836,.00020652,87.8968,344.2578,103.0103,257.1256,0,U,47258,999,26896,.10171663E-2,.379E-5,0
ONEWEB-0109,2020-100B,2026-07-19T11:12:28.532160,13.12443520,.00019875,87.8977,344.2425,96.4720,263.6634,0,U,47259,999,26879,.11384398E-2,.422E-5,0
ONEWEB-0110,2020-100C,2026-07-19T15:31:04.400544,13.12442535,.00018842,87.8977,344.1910,106.5202,253.6134,0,U,47260,999,26898,-.47531475E-3,-.158E-5,0
ONEWEB-0111,2020-100D,2026-07-19T10:45:38.286720,13.12444532,.00017611,87.8976,344.2491,99.0472,261.0855,0,U,47261,999,26879,.15750072E-3,.69E-6,0
ONEWEB-0114,2020-100E,2026-07-19T11:29:33.146304,13.12442417,.00020798,87.8979,344.2409,96.6505,263.4861,0,U,47262,999,26875,.52859165E-3,.203E-5,0
ONEWEB-0117,2020-100F,2026-07-19T09:27:34.623072,13.12442496,.00018736,87.8976,344.2476,98.9313,261.2028,0,U,47263,999,26875,.12460501E-2,.461E-5,0
ONEWEB-0118,2020-100G,2026-07-19T15:45:42.330816,13.12442220,.00019434,87.8975,344.1982,86.9030,273.2320,0,U,47264,999,26898,-.84394979E-3,-.291E-5,0
ONEWEB-0119,2020-100H,2026-07-19T10:52:57.855360,13.12443608,.00018995,87.8965,344.2524,96.6978,263.4366,0,U,47265,999,26893,.6748714E-3,.256E-5,0
ONEWEB-0120,2020-100J,2026-07-19T11:27:19.043136,13.12441040,.00020254,87.8968,344.2492,95.0613,265.0747,0,U,47266,999,26896,.81774549E-3,.307E-5,0
ONEWEB-0121,2020-100K,2026-07-19T11:10:02.303616,13.12442755,.00016044,87.8976,344.2407,102.2116,257.9193,0,U,47267,999,26887,.12444347E-2,.46E-5,0
ONEWEB-0122,2020-100L,2026-07-19T11:01:30.210816,13.12441916,.00020279,87.8977,344.2470,99.4257,260.7101,0,U,47268,999,26878,.10154793E-2,.378E-5,0
ONEWEB-0123,2020-100M,2026-07-19T10:55:23.822976,13.12443504,.00018507,87.8966,344.2514,93.7193,266.4147,0,U,47269,999,26892,.72875974E-3,.275E-5,0
ONEWEB-0124,2020-100N,2026-07-19T10:40:45.250752,13.12445315,.00019988,87.8966,344.2557,99.9686,260.1668,0,U,47270,999,26880,-.60062683E-3,-.203E-5,0
ONEWEB-0125,2020-100P,2026-07-19T15:38:22.578144,13.12442466,.00015875,87.8979,344.2018,93.4552,266.6759,0,U,47271,999,26889,-.92573467E-3,-.32E-5,0
ONEWEB-0126,2020-100Q,2026-07-19T10:38:31.856928,13.12443734,.00019696,87.8969,344.2569,95.3733,264.7620,0,U,47272,999,26893,-.32042414E-3,-.103E-5,0
ONEWEB-0127,2020-100R,2026-07-19T09:49:31.403136,13.12442409,.00020327,87.8966,344.2603,98.8458,261.2901,0,U,47273,999,26895,.17724E-6,.13E-6,0
ONEWEB-0128,2020-100S,2026-07-19T15:50:34.608192,13.12443030,.00018512,87.8966,344.2245,107.5058,252.6273,0,U,47274,999,26900,-.12347985E-2,-.431E-5,0
ONEWEB-0129,2020-100T,2026-07-19T15:21:18.782208,13.12441684,.00029569,87.8976,344.2054,90.5427,269.6040,0,U,47275,999,26893,.23390167E-3,.97E-6,0
