ONEWEB-0068             
1 45446U 20020Y   26200.50316449 -.00000354  00000+0 -10357-2 0  9990
2 45446  87.8895  14.6302 0001654  93.9822 266.1495 13.11417316306836
ONEWEB-0046             
1 45447U 20020Z   26200.49482328 -.00000046  00000+0 -16661-3 0  9992
2 45447  87.8887  14.6359 0001582  85.8681 274.2627 13.11416066306842
ONEWEB-0063             
1 45448U 20020AA  26200.44749629 -.00000300  00000+0 -88087-3 0  9992
2 45448  87.8895  14.6478 0001836  82.0232 278.1105 13.11417942306924
ONEWEB-0019             
1 45449U 20020AB  26200.48622544  .00000324  00000+0  87949-3 0  9993
2 45449  87.8890  14.6238 0002003  96.2670 263.8686 13.11415254306776
ONEWEB-0094             
1 45450U 20020AC  26200.47582393  .00000026  00000+0  34521-4 0  9999
2 45450  87.9159 359.4287 0001858 101.2772 258.8569 13.17649370310568
ONEWEB-0087             
1 45451U 20020AD  26200.45739620  .00000114  00000+0  28688-3 0  9999
2 45451  87.8903  14.6218 0001595  97.1715 262.9595 13.11418749306813
ONEWEB-0082             
1 45452U 20020AE  26200.45400223 -.00000034  00000+0 -13142-3 0  9996
2 45452  87.8896  14.6362 0001352  93.0944 267.0339 13.11419413306906
ONEWEB-0050             
1 45453U 20020AF  26200.10108001  .00000802  00000+0  79977-4 0  9998
2 45453  88.9282 228.8753 0002773 164.3342 195.7973 14.90478592345133
ONEWEB-0034             
1 45454U 20020AG  26200.49160544  .00000144  00000+0  37085-3 0  9993
2 45454  87.8894  14.6379 0001807  89.2302 270.9033 13.11414526306829
ONEWEB-0060             
1 45455U 20020AH  26200.44651189 -.00000336  00000+0 -98506-3 0  9999
2 45455  87.8890  14.6427 0001397 125.0873 235.0386 13.11418202306778
ONEWEB-0086             
1 45456U 20020AJ  26200.50147067 -.00000301  00000+0 -88391-3 0  9995
2 45456  87.8895  14.6295 0002000 114.3126 245.8211 13.11416065306840
ONEWEB-0088             
1 45457U 20020AK  26200.47957328  .00000541  00000+0  14914-2 0  9994
2 45457  87.8903  14.6091 0001639  79.6731 280.4582 13.11416481306777
ONEWEB-0102             
1 47258U 20100A   26200.45852687  .00000379  00000+0  10172-2 0  9995
2 47258  87.8968 344.2578 0002065 103.0103 257.1256 13.12443836268962
ONEWEB-0109             
1 47259U 20100B   26200.46699690  .00000422  00000+0  11384-2 0  9995
2 47259  87.8977 344.2425 0001987  96.4720 263.6634 13.12443520268799
ONEWEB-0110             
1 47260U 20100C   26200.64657871 -.00000158  00000+0 -47531-3 0  9994
2 47260  87.8977 344.1910 0001884 106.5202 253.6134 13.12442535268983
ONEWEB-0111             
1 47261U 20100D   26200.44835980  .00000069  00000+0  15750-3 0  9999
2 47261  87.8976 344.2491 0001761  99.0472 261.0855 13.12444532268798
ONEWEB-0114             
1 47262U 20100E   26200.47885586  .00000203  00000+0  52859-3 0  9991
2 47262  87.8979 344.2409 0002079  96.6505 263.4861 13.12442417268753
ONEWEB-0117             
1 47263U 20100F   26200.39415073  .00000461  00000+0  12461-2 0  9993
2 47263  87.8976 344.2476 0001873  98.9313 261.2028 13.12442496268756
ONEWEB-0118             
1 47264U 20100G   26200.65673994 -.00000291  00000+0 -84395-3 0  9990
2 47264  87.8975 344.1982 0001943  86.9030 273.2320 13.12442220268986
ONEWEB-0119             
1 47265U 20100H   26200.45344740  .00000256  00000+0  67487-3 0  9995
2 47265  87.8965 344.2524 0001899  96.6978 263.4366 13.12443608268935
ONEWEB-0120             
1 47266U 20100J   26200.47730374  .00000307  00000+0  81775-3 0  9993
2 47266  87.8968 344.2492 0002025  95.0613 265.0747 13.12441040268966
ONEWEB-0121             
1 47267U 20100K   26200.46530444  .00000460  00000+0  12444-2 0  9995
2 47267  87.8976 344.2407 0001604 102.2116 257.9193 13.12442755268872
ONEWEB-0122             
1 47268U 20100L   26200.45937744  .00000378  00000+0  10155-2 0  9994
2 47268  87.8977 344.2470 0002027  99.4257 260.7101 13.12441916268786
ONEWEB-0123             
1 47269U 20100M   26200.45513684  .00000275  00000+0  72876-3 0  9993
2 47269  87.8966 344.2514 0001850  93.7193 266.4147 13.12443504268927
ONEWEB-0124             
1 47270U 20100N   26200.44496818 -.00000203  00000+0 -60063-3 0  9991
2 47270  87.8966 344.2557 0001998  99.9686 260.1668 13.12445315268802
ONEWEB-0125             
1 47271U 20100P   26200.65165021 -.00000320  00000+0 -92573-3 0  9995
2 47271  87.8979 344.2018 0001587  93.4552 266.6759 13.12442466268899
ONEWEB-0126             
1 47272U 20100Q   26200.44342427 -.00000103  00000+0 -32042-3 0  9994
2 47272  87.8969 344.2569 0001969  95.3733 264.7620 13.12443734268936
ONEWEB-0127             
1 47273U 20100R   26200.40939124  .00000013  00000+0  17724-6 0  9998
2 47273  87.8966 344.2603 0002032  98.8458 261.2901 13.12442409268951
ONEWEB-0128             
1 47274U 20100S   26200.66012278 -.00000431  00000+0 -12348-2 0  9998
2 47274  87.8966 344.2245 0001851 107.5058 252.6273 13.12443030269000
ONEWEB-0129             
1 47275U 20100T   26200.63980072  .00000097  00000+0  23390-3 0  9998
2 47275  87.8976 344.2054 0002956  90.5427 269.6040 13.12441684268932
